{
"type": "FeatureCollection",
"features": [
{ "type": "Feature", "properties": { "Craft": "oil_mill", "Shop": null, "amenity": null, "waterway": null, "healthcare": null, "osm_type": "node", "osm_id": -74901, "building": "roof", "construction": null }, "geometry": { "type": "Point", "coordinates": [ 7.266548120490377, 5.852087580603666 ] } },
{ "type": "Feature", "properties": { "Craft": null, "Shop": null, "amenity": null, "waterway": null, "healthcare": null, "osm_type": "node", "osm_id": -74021, "building": "yes", "construction": null }, "geometry": { "type": "Point", "coordinates": [ 7.266210936173922, 5.852372340503428 ] } },
{ "type": "Feature", "properties": { "Craft": null, "Shop": null, "amenity": "place_of_worship", "waterway": null, "healthcare": null, "osm_type": "node", "osm_id": -83247, "building": "yes", "construction": null }, "geometry": { "type": "Point", "coordinates": [ 7.260559226615253, 5.844452083458791 ] } },
{ "type": "Feature", "properties": { "Craft": "grinding_mill", "Shop": null, "amenity": null, "waterway": null, "healthcare": null, "osm_type": "node", "osm_id": -50845, "building": "yes", "construction": null }, "geometry": { "type": "Point", "coordinates": [ 7.266570758306675, 5.850287278475881 ] } },
{ "type": "Feature", "properties": { "Craft": null, "Shop": null, "amenity": "School", "waterway": null, "healthcare": null, "osm_type": "node", "osm_id": -82789, "building": "yes", "construction": null }, "geometry": { "type": "Point", "coordinates": [ 7.259428825130319, 5.844682631745836 ] } },
{ "type": "Feature", "properties": { "Craft": null, "Shop": null, "amenity": "place_of_worship", "waterway": null, "healthcare": null, "osm_type": "node", "osm_id": -91606, "building": "yes", "construction": null }, "geometry": { "type": "Point", "coordinates": [ 7.2630564, 5.8468517 ] } },
{ "type": "Feature", "properties": { "Craft": null, "Shop": null, "amenity": null, "waterway": "water_point", "healthcare": null, "osm_type": "node", "osm_id": -42042, "building": null, "construction": null }, "geometry": { "type": "Point", "coordinates": [ 7.266747094981005, 5.849981072223836 ] } },
{ "type": "Feature", "properties": { "Craft": null, "Shop": null, "amenity": "place_of_worship", "waterway": null, "healthcare": null, "osm_type": "node", "osm_id": -72284, "building": "yes", "construction": null }, "geometry": { "type": "Point", "coordinates": [ 7.2597885, 5.8462265 ] } },
{ "type": "Feature", "properties": { "Craft": null, "Shop": null, "amenity": "place_of_worship", "waterway": null, "healthcare": null, "osm_type": "node", "osm_id": -75654, "building": "yes", "construction": null }, "geometry": { "type": "Point", "coordinates": [ 7.2586561, 5.8493552 ] } },
{ "type": "Feature", "properties": { "Craft": null, "Shop": null, "amenity": "place_of_worship", "waterway": null, "healthcare": null, "osm_type": "node", "osm_id": -12836, "building": "yes", "construction": null }, "geometry": { "type": "Point", "coordinates": [ 7.2629047, 5.8469164 ] } },
{ "type": "Feature", "properties": { "Craft": null, "Shop": "kiosk", "amenity": null, "waterway": null, "healthcare": null, "osm_type": "node", "osm_id": -12488, "building": "yes", "construction": null }, "geometry": { "type": "Point", "coordinates": [ 7.266901091705039, 5.848546549548889 ] } },
{ "type": "Feature", "properties": { "Craft": null, "Shop": null, "amenity": "place_of_worship", "waterway": null, "healthcare": null, "osm_type": "node", "osm_id": -21292, "building": "yes", "construction": null }, "geometry": { "type": "Point", "coordinates": [ 7.267384528229428, 5.850262257731554 ] } },
{ "type": "Feature", "properties": { "Craft": "grinding_mill", "Shop": null, "amenity": null, "waterway": null, "healthcare": null, "osm_type": "node", "osm_id": -2259, "building": "roof", "construction": null }, "geometry": { "type": "Point", "coordinates": [ 7.259117853022213, 5.849523252175792 ] } },
{ "type": "Feature", "properties": { "Craft": null, "Shop": null, "amenity": "place_of_worship", "waterway": null, "healthcare": null, "osm_type": "node", "osm_id": -1478, "building": "yes", "construction": null }, "geometry": { "type": "Point", "coordinates": [ 7.2691264, 5.8496804 ] } },
{ "type": "Feature", "properties": { "Craft": "oil_mill", "Shop": null, "amenity": null, "waterway": null, "healthcare": null, "osm_type": "node", "osm_id": -83027, "building": "roof", "construction": null }, "geometry": { "type": "Point", "coordinates": [ 7.258597778979342, 5.849541124136028 ] } },
{ "type": "Feature", "properties": { "Craft": null, "Shop": null, "amenity": "place_of_worship", "waterway": null, "healthcare": null, "osm_type": "node", "osm_id": -64671, "building": "yes", "construction": null }, "geometry": { "type": "Point", "coordinates": [ 7.260720967855393, 5.847580570098126 ] } },
{ "type": "Feature", "properties": { "Craft": null, "Shop": null, "amenity": "clinic", "waterway": null, "healthcare": "clinic", "osm_type": "node", "osm_id": -36020, "building": "yes", "construction": null }, "geometry": { "type": "Point", "coordinates": [ 7.271074492286177, 5.849917924631002 ] } },
{ "type": "Feature", "properties": { "Craft": null, "Shop": "kiosk", "amenity": null, "waterway": null, "healthcare": null, "osm_type": "node", "osm_id": -56251, "building": null, "construction": null }, "geometry": { "type": "Point", "coordinates": [ 7.261014961601275, 5.842422722373977 ] } },
{ "type": "Feature", "properties": { "Craft": null, "Shop": null, "amenity": "place_of_worship", "waterway": null, "healthcare": null, "osm_type": "node", "osm_id": -80591, "building": "yes", "construction": null }, "geometry": { "type": "Point", "coordinates": [ 7.26733627393679, 5.849370446915773 ] } },
{ "type": "Feature", "properties": { "Craft": null, "Shop": null, "amenity": "School", "waterway": null, "healthcare": null, "osm_type": "node", "osm_id": -61613, "building": "yes", "construction": null }, "geometry": { "type": "Point", "coordinates": [ 7.2615162700859, 5.847646696350998 ] } },
{ "type": "Feature", "properties": { "Craft": null, "Shop": "kiosk", "amenity": null, "waterway": null, "healthcare": null, "osm_type": "node", "osm_id": -47512, "building": "yes", "construction": null }, "geometry": { "type": "Point", "coordinates": [ 7.265670607242782, 5.848176599972001 ] } },
{ "type": "Feature", "properties": { "Craft": null, "Shop": null, "amenity": "place_of_worship", "waterway": null, "healthcare": null, "osm_type": "node", "osm_id": -93222, "building": "yes", "construction": null }, "geometry": { "type": "Point", "coordinates": [ 7.2586151, 5.8468971 ] } },
{ "type": "Feature", "properties": { "Craft": null, "Shop": null, "amenity": "place_of_worship", "waterway": null, "healthcare": null, "osm_type": "node", "osm_id": -38746, "building": "yes", "construction": null }, "geometry": { "type": "Point", "coordinates": [ 7.26021519138071, 5.849380276493903 ] } },
{ "type": "Feature", "properties": { "Craft": null, "Shop": null, "amenity": "pharmacy", "waterway": null, "healthcare": null, "osm_type": "node", "osm_id": -76073, "building": "yes", "construction": null }, "geometry": { "type": "Point", "coordinates": [ 7.266791179149587, 5.848573357489244 ] } }
]
}
